NORAD_CAT_ID,OBJECT_NAME,OBJECT_TYPE,EPOCH,MEAN_MOTION,ECCENTRICITY,INCLINATION,RA_OF_ASC_NODE,ARG_OF_PERICENTER,MEAN_ANOMALY,BSTAR,MEAN_MOTION_DOT,MEAN_MOTION_DDOT,TLE_LINE0,TLE_LINE1,TLE_LINE2,SEMIMAJOR_AXIS,PERIOD,APOGEE,PERIGEE,DECAYED
55290.0,STARLINK-5266,PAYLOAD,2023-07-31 09:28:01,14.9833458,0.0003551,69.9983,265.5625,270.9857,89.0895,-2.6641e-05,-4.11e-06,0.0,0 STARLINK-5266,1 55290U 23010X   23212.39445852 -.00000411  00000-0 -26641-4 0  9998,2 55290  69.9983 265.5625 0003551 270.9857  89.0895 14.98334580 30322,6950.179,96.107,574.512,569.576,0.0
55290.0,STARLINK-5266,PAYLOAD,2023-08-01 12:42:18,14.98329649,0.0003508,69.9983,262.7005,270.9924,89.0834,-1.0904e-05,-2.23e-06,0.0,0 STARLINK-5266,1 55290U 23010X   23213.52937934 -.00000223  00000-0 -10904-4 0  9997,2 55290  69.9983 262.7005 0003508 270.9924  89.0834 14.98329649 30491,6950.194,96.107,574.497,569.621,0.0
55290.0,STARLINK-5266,PAYLOAD,2023-08-02 12:44:19,14.98328474,0.0003426,69.9986,260.1759,269.0388,91.0379,-3.4571e-05,-5.06e-06,0.0,0 STARLINK-5266,1 55290U 23010X   23214.53078105 -.00000506  00000-0 -34571-4 0  9995,2 55290  69.9986 260.1759 0003426 269.0388  91.0379 14.98328474 30643,6950.198,96.107,574.444,569.681,0.0
55290.0,STARLINK-5266,PAYLOAD,2023-08-03 12:46:19,14.98333132,0.0003563,69.9986,257.6512,269.9616,90.1134,4.7114e-05,4.69e-06,0.0,0 STARLINK-5266,1 55290U 23010X   23215.53217523  .00000469  00000-0  47114-4 0  9998,2 55290  69.9986 257.6512 0003563 269.9616  90.1134 14.98333132 30798,6950.183,96.107,574.525,569.572,0.0
55290.0,STARLINK-5266,PAYLOAD,2023-08-04 03:11:32,14.98327976,0.0003497,69.9988,256.1363,269.1848,90.891,5.5672e-07,-8.6e-07,0.0,0 STARLINK-5266,1 55290U 23010X   23216.13301975 -.00000086  00000-0  55672-6 0  9996,2 55290  69.9988 256.1363 0003497 269.1848  90.8910 14.98327976 30881,6950.199,96.107,574.495,569.634,0.0
55290.0,STARLINK-5266,PAYLOAD,2023-08-04 12:48:21,14.98309464,0.0003413,69.9991,255.1264,269.2924,90.7844,0.00030787,3.58e-05,0.0,0 STARLINK-5266,1 55290U 23010X   23216.53358435  .00003580  00000-0  30787-3 0  9991,2 55290  69.9991 255.1264 0003413 269.2924  90.7844 14.98309464 30942,6950.256,96.108,574.494,569.749,0.0
55290.0,STARLINK-5266,PAYLOAD,2023-08-05 03:13:33,14.98331868,0.0003479,69.9994,253.6119,266.8833,93.1928,-1.7474e-05,-3.02e-06,0.0,0 STARLINK-5266,1 55290U 23010X   23217.13441805 -.00000302  00000-0 -17474-4 0  9992,2 55290  69.9994 253.6119 0003479 266.8833  93.1928 14.98331868 31035,6950.187,96.107,574.47,569.634,0.0
55290.0,STARLINK-5266,PAYLOAD,2023-08-06 04:51:42,14.98330092,0.0003426,69.9998,250.9185,267.2123,92.8644,3.5935e-05,3.36e-06,0.0,0 STARLINK-5266,1 55290U 23010X   23218.20257573  .00000336  00000-0  35935-4 0  9995,2 55290  69.9998 250.9185 0003426 267.2123  92.8644 14.98330092 31197,6950.193,96.107,574.439,569.676,0.0
55290.0,STARLINK-5266,PAYLOAD,2023-08-07 09:42:07,14.98328849,0.0003513,69.9994,247.8882,269.5514,90.5243,-4.6986e-05,-6.54e-06,0.0,0 STARLINK-5266,1 55290U 23010X   23219.40425865 -.00000654  00000-0 -46986-4 0  9992,2 55290  69.9994 247.8882 0003513 269.5514  90.5243 14.98328849 31375,6950.196,96.107,574.503,569.62,0.0
55290.0,STARLINK-5266,PAYLOAD,2023-08-08 11:20:16,14.98329698,0.0003789,69.9991,245.1943,271.6577,88.4148,9.538e-05,1.045e-05,0.0,0 STARLINK-5266,1 55290U 23010X   23220.47241290  .00001045  00000-0  95380-4 0  9994,2 55290  69.9991 245.1943 0003789 271.6577  88.4148 14.98329698 31530,6950.194,96.107,574.692,569.425,0.0
55290.0,STARLINK-5266,PAYLOAD,2023-08-09 12:58:24,14.98340521,0.0003552,69.9991,242.5014,270.3781,89.6971,0.00014603,1.65e-05,0.0,0 STARLINK-5266,1 55290U 23010X   23221.54056593  .00001650  00000-0  14603-3 0  9993,2 55290  69.9991 242.5014 0003552 270.3781  89.6971 14.98340521 31693,6950.16,96.106,574.494,569.557,0.0
55290.0,STARLINK-5266,PAYLOAD,2023-08-10 09:48:08,14.98348752,0.0003549,69.9993,240.3131,269.4108,90.6645,0.00014671,1.659e-05,0.0,0 STARLINK-5266,1 55290U 23010X   23222.40843244  .00001659  00000-0  14671-3 0  9990,2 55290  69.9993 240.3131 0003549 269.4108  90.6645 14.98348752 31828,6950.135,96.106,574.467,569.533,0.0
55290.0,STARLINK-5266,PAYLOAD,2023-08-11 00:13:21,14.98337328,0.0002796,70.0022,238.7995,266.6425,93.4414,2.229e-05,1.73e-06,0.0,0 STARLINK-5266,1 55290U 23010X   23223.00928185  .00000173  00000-0  22290-4 0  9992,2 55290  70.0022 238.7995 0002796 266.6425  93.4414 14.98337328 31919,6950.17,96.107,573.978,570.092,0.0
55290.0,STARLINK-5266,PAYLOAD,2023-08-11 09:50:10,14.98326123,0.0003372,70.0002,237.7887,260.9721,99.1056,-1.0425e-05,-2.17e-06,0.0,0 STARLINK-5266,1 55290U 23010X   23223.40984615 -.00000217  00000-0 -10425-4 0  9994,2 55290  70.0002 237.7887 0003372 260.9721  99.1056 14.98326123 31975,6950.205,96.107,574.413,569.726,0.0
55290.0,STARLINK-5266,PAYLOAD,2023-08-12 09:52:11,14.98402086,0.0003672,69.9996,235.2633,263.1002,96.9739,-0.001358,-0.0001629,0.0,0 STARLINK-5266,1 55290U 23010X   23224.41123920 -.00016290  00000-0 -13580-2 0  9991,2 55290  69.9996 235.2633 0003672 263.1002  96.9739 14.98402086 32120,6949.97,96.102,574.387,569.283,0.0
55290.0,STARLINK-5266,PAYLOAD,2023-08-13 00:17:24,14.98322664,0.0003369,69.9991,233.7485,269.371,90.7063,-9.15e-06,-2.02e-06,0.0,0 STARLINK-5266,1 55290U 23010X   23225.01208690 -.00000202  00000-0 -91500-5 0  9993,2 55290  69.9991 233.7485 0003369 269.3710  90.7063 14.98322664 32215,6950.216,96.107,574.422,569.739,0.0
55290.0,STARLINK-5266,PAYLOAD,2023-08-14 09:56:14,14.98322216,0.0003417,69.9991,230.2138,269.189,90.8878,1.9306e-05,1.37e-06,0.0,0 STARLINK-5266,1 55290U 23010X   23226.41405314  .00000137  00000-0  19306-4 0  9998,2 55290  69.9991 230.2138 0003417 269.1890  90.8878 14.98322216 32424,6950.217,96.107,574.457,569.707,0.0
55290.0,STARLINK-5266,PAYLOAD,2023-08-15 09:58:15,14.98326593,0.0003427,69.9994,227.689,269.1239,90.9527,3.8378e-05,3.65e-06,0.0,0 STARLINK-5266,1 55290U 23010X   23227.41545340  .00000365  00000-0  38378-4 0  9996,2 55290  69.9994 227.6890 0003427 269.1239  90.9527 14.98326593 32570,6950.203,96.107,574.45,569.687,0.0
55290.0,STARLINK-5266,PAYLOAD,2023-08-16 10:00:15,14.98330844,0.0003422,69.9996,225.1642,269.1243,90.9524,6.9774e-05,7.4e-06,0.0,0 STARLINK-5266,1 55290U 23010X   23228.41685074  .00000740  00000-0  69774-4 0  9997,2 55290  69.9996 225.1642 0003422 269.1243  90.9524 14.98330844 32728,6950.19,96.107,574.434,569.677,0.0
55290.0,STARLINK-5266,PAYLOAD,2023-08-17 10:02:16,14.98332186,0.0003365,69.9998,222.6394,269.0821,90.9953,3.6117e-05,3.38e-06,0.0,0 STARLINK-5266,1 55290U 23010X   23229.41825018  .00000338  00000-0  36117-4 0  9990,2 55290  69.9998 222.6394 0003365 269.0821  90.9953 14.98332186 32876,6950.186,96.107,574.39,569.712,0.0
55290.0,STARLINK-5266,PAYLOAD,2023-08-18 16:28:50,14.98328667,0.0003313,70.0001,219.4418,267.6716,92.4064,2.6568e-05,2.24e-06,0.0,0 STARLINK-5266,1 55290U 23010X   23230.68669160  .00000224  00000-0  26568-4 0  9998,2 55290  70.0001 219.4418 0003313 267.6716  92.4064 14.98328667 33066,6950.197,96.107,574.365,569.759,0.0
55290.0,STARLINK-5266,PAYLOAD,2023-08-20 03:43:48,14.9831189,0.0003169,70.0,215.7394,267.0354,93.0442,-0.00018815,-2.336e-05,0.0,0 STARLINK-5266,1 55290U 23010X   23232.15542743 -.00002336  00000-0 -18815-3 0  9992,2 55290  70.0000 215.7394 0003169 267.0354  93.0442 14.98311890 33289,6950.249,96.108,574.316,569.911,0.0
55290.0,STARLINK-5266,PAYLOAD,2023-08-21 03:45:50,14.98319118,0.0003115,70.0002,213.2141,268.2276,91.8526,-8.9374e-05,-1.159e-05,0.0,0 STARLINK-5266,1 55290U 23010X   23233.15682951 -.00001159  00000-0 -89374-4 0  9990,2 55290  70.0002 213.2141 0003115 268.2276  91.8526 14.98319118 33438,6950.227,96.108,574.257,569.927,0.0
55290.0,STARLINK-5266,PAYLOAD,2023-08-22 02:11:42,14.98318871,0.0003037,69.9999,210.8572,267.6219,92.4593,0.00011772,1.311e-05,0.0,0 STARLINK-5266,1 55290U 23010X   23234.09146892  .00001311  00000-0  11772-3 0  9997,2 55290  69.9999 210.8572 0003037 267.6219  92.4593 14.98318871 33575,6950.227,96.108,574.203,569.982,0.0
55290.0,STARLINK-5266,PAYLOAD,2023-08-22 08:36:15,14.98303203,0.0003064,70.0,210.1845,269.7705,90.3103,0.00049768,5.846e-05,0.0,0 STARLINK-5266,1 55290U 23010X   23234.35851181  .00005846  00000-0  49768-3 0  9993,2 55290  70.0000 210.1845 0003064 269.7705  90.3103 14.98303203 33612,6950.276,96.109,574.27,570.011,0.0
55290.0,STARLINK-5266,PAYLOAD,2023-08-23 02:13:43,14.98332535,0.0003121,70.0002,208.3329,268.6018,91.4784,0.00013854,1.561e-05,0.0,0 STARLINK-5266,1 55290U 23010X   23235.09286345  .00001561  00000-0  13854-3 0  9996,2 55290  70.0002 208.3329 0003121 268.6018  91.4784 14.98332535 33728,6950.185,96.107,574.219,569.881,0.0
55290.0,STARLINK-5266,PAYLOAD,2023-08-24 07:04:07,14.98343868,0.0003041,70.0004,205.3035,267.0384,93.0427,0.00011202,1.244e-05,0.0,0 STARLINK-5266,1 55290U 23010X   23236.29453020  .00001244  00000-0  11202-3 0  9998,2 55290  70.0004 205.3035 0003041 267.0384  93.0427 14.98343868 34208,6950.15,96.106,574.129,569.901,0.0
55290.0,STARLINK-5266,PAYLOAD,2023-08-25 02:17:44,14.9833967,0.0002568,70.002,203.2857,244.958,115.1313,-5.5407e-05,-7.54e-06,0.0,0 STARLINK-5266,1 55290U 23010X   23237.09565119 -.00000754  00000-0 -55407-4 0  9993,2 55290  70.0020 203.2857 0002568 244.9580 115.1313 14.98339670 34026,6950.163,96.106,573.813,570.243,0.0
55290.0,STARLINK-5266,PAYLOAD,2023-08-25 07:06:08,14.9833691,0.0002617,70.0018,202.7803,250.6168,109.4709,-8.1851e-05,-1.07e-05,0.0,0 STARLINK-5266,1 55290U 23010X   23237.29593265 -.00001070  00000-0 -81851-4 0  9992,2 55290  70.0018 202.7803 0002617 250.6168 109.4709 14.98336910 34354,6950.172,96.107,573.855,570.218,0.0
55290.0,STARLINK-5266,PAYLOAD,2023-08-25 21:31:21,14.9833494,0.0002521,70.002,201.2652,253.4872,106.601,-7.8457e-05,-1.029e-05,0.0,0 STARLINK-5266,1 55290U 23010X   23237.89677107 -.00001029  00000-0 -78457-4 0  9998,2 55290  70.0020 201.2652 0002521 253.4872 106.6010 14.98334940 34445,6950.178,96.107,573.795,570.29,0.0
